[{"OBJECT_NAME":"STARLINK-4433","OBJECT_ID":"2022-099P","EPOCH":"2026-03-09T21:46:27.251040","MEAN_MOTION":15.01254669,"ECCENTRICITY":0.00039682,"INCLINATION":97.6013,"RA_OF_ASC_NODE":190.4337,"ARG_OF_PERICENTER":212.711,"MEAN_ANOMALY":147.3869,"EPHEMERIS_TYPE":0,"CLASSIFICATION_TYPE":"U","NORAD_CAT_ID":53478,"ELEMENT_SET_NO":999,"REV_AT_EPOCH":19601,"BSTAR":-2.406775e-5,"MEAN_MOTION_DOT":-3.68e-6,"MEAN_MOTION_DDOT":0},{"OBJECT_NAME":"FENGYUN 1C DEB","OBJECT_ID":"1999-025CRT","EPOCH":"2026-03-08T05:25:55.615296","MEAN_MOTION":14.72591337,"ECCENTRICITY":0.01689255,"INCLINATION":99.0682,"RA_OF_ASC_NODE":62.2268,"ARG_OF_PERICENTER":58.082,"MEAN_ANOMALY":303.669,"EPHEMERIS_TYPE":0,"CLASSIFICATION_TYPE":"U","NORAD_CAT_ID":32125,"ELEMENT_SET_NO":999,"REV_AT_EPOCH":71780,"BSTAR":0.003714293,"MEAN_MOTION_DOT":0.00029682,"MEAN_MOTION_DDOT":0}]
